LEDSAT                  
1 49069U 21073D   24266.16250475  .00027439  00000+0  93266-3 0  9994
2 49069  97.4270 336.9238 0016033 299.6710  60.2934 15.30308457171256
XW-3 (CAS-9)            
1 50466U 21131B   24266.55705550  .00001320  00000+0  43329-3 0  9990
2 50466  98.5246 351.1730 0004217 181.5674 178.5501 14.39976745144015
GREENCUBE               
1 53106U 22080B   24262.04253631 -.00000003  00000+0  00000+0 0  9999
2 53106  70.1426 160.2682 0008012  86.6369 273.5207  6.42557475 51233
CAS-5A (FO-118)         
1 54684U 22167C   24266.58512798  .00056159  00000+0  14093-2 0  9994
2 54684  97.6154  54.3661 0008561 171.3161 188.8234 15.39789220 99239
STRATOSAT-TK 1 (RS52S)  
1 57167U 23091B   24266.60935601  .00022906  00000+0  11454-2 0  9996
2 57167  97.5997 319.6565 0015408 142.0972 218.1349 15.17339380 68307
UMKA 1 (RS40S)          
1 57172U 23091G   24266.58273203  .00007486  00000+0  46969-3 0  9998
2 57172  97.6004 317.7049 0017321 145.6630 214.5722 15.09474280 68175
CUBESX-HSE 3 (RS42S)    
1 57178U 23091N   24266.56143624  .00012579  00000+0  74021-3 0  9994
2 57178  97.6042 318.4071 0017610 140.1227 220.1300 15.11648766 68203
MONITOR-4 (RS57S)       
1 57182U 23091S   24266.58499983  .00010426  00000+0  62597-3 0  9997
2 57182  97.6026 318.1535 0018077 141.2071 219.0460 15.10965434 68194
MONITOR-2 (RS39S)       
1 57184U 23091U   24266.54685873  .00007284  00000+0  45936-3 0  9996
2 57184  97.6041 318.0827 0015089 134.7890 225.4568 15.09325159 68183
SVYATOBOR 1 (RS60S)     
1 57187U 23091X   24266.58514479  .00009604  00000+0  56892-3 0  9997
2 57187  97.6035 318.8068 0014402 131.9728 228.2731 15.11524577 68238
VIZARD-METEO (RS38S)    
1 57189U 23091Z   24266.56786913  .00012927  00000+0  72350-3 0  9990
2 57189  97.6028 319.3993 0013207 129.3616 230.8787 15.13506067 68274
NANOZOND 1 (RS49S)      
1 57190U 23091AA  24266.56870418  .00020202  00000+0  10093-2 0  9996
2 57190  97.5999 320.3205 0011398 132.8670 227.3523 15.17445893 68348
POLYTECH-UNIVERSE 3 (R*)
1 57191U 23091AB  24266.55393663  .00007678  00000+0  48318-3 0  9992
2 57191  97.6007 317.7266 0019914 151.9518 208.2788 15.09313076 68172
UTMN 2 (RS27S)          
1 57203U 23091AP  24266.59628698  .00011438  00000+0  65351-3 0  9994
2 57203  97.6029 319.2050 0013710 129.5051 230.7394 15.12790288 68260
ARCCUBE 1 (RS25S)       
1 57205U 23091AR  24266.58523992  .00024691  00000+0  11643-2 0  9995
2 57205  97.5961 320.6199 0011270 134.1679 226.0483 15.19417477 68375
KUZGTU 1 (RS47S)        
1 57217U 23091AV  24266.58139332  .00011315  00000+0  67068-3 0  9991
2 57217  97.6012 318.2347 0017589 141.2489 219.0006 15.11415075 68200
HADES-D (SO-121)        
1 58567U 23174CY  24266.53781688  .00161526  00000+0  27157-2 0  9998
2 58567  97.4395 343.6651 0011650 237.1375 122.8756 15.51098819 48740
OOV-CUBE (TUBSAT-30)    
1 60240U 24128F   24266.48997204  .00004439  00000+0  39813-3 0  9998
2 60240  61.9965 263.7881 0016274 332.6599  27.3631 14.97142040 11176
CUTE-1 (CO-55)          
1 27844U 03031E   24266.45038081  .00000802  00000+0  37190-3 0  9993
2 27844  98.6802 272.1473 0008884 216.6149 143.4424 14.23478547101620
CUBESAT XI-IV (CO-57)   
1 27848U 03031J   24266.49397108  .00000649  00000+0  30812-3 0  9992
2 27848  98.6833 272.3784 0008562 234.6739 125.3640 14.22889135101372
CUBESAT XI-V            
1 28895U 05043F   24266.56738399  .00003578  00000+0  62299-3 0  9997
2 28895  98.2157  42.6584 0015884  52.6829 307.5821 14.68616136  8740
CUTE-1.7+APD II (CO-65) 
1 32785U 08021C   24266.43559565  .00009087  00000+0  76016-3 0  9994
2 32785  97.7647 231.1140 0010507  12.4877 347.6604 14.98659844890039
AAUSAT-II               
1 32788U 08021F   24266.49954717  .00037128  00000+0  14807-2 0  9997
2 32788  97.6021 247.5177 0006403 142.4602 217.7083 15.25075453893117
CANX-2                  
1 32790U 08021H   24265.86928131  .00007361  00000+0  64536-3 0  9992
2 32790  97.7799 229.2102 0012731  24.5746 335.6079 14.96882981889746
SEEDS II (CO-66)        
1 32791U 08021J   24266.38826951  .00016107  00000+0  10733-2 0  9995
2 32791  97.7021 237.2591 0004907  20.0297 340.1122 15.07161970891142
SWISSCUBE               
1 35932U 09051B   24266.25090481  .00002429  00000+0  51964-3 0  9990
2 35932  98.4545 151.4654 0007991  28.8418 331.3222 14.59681438796717
BEESAT-1                
1 35933U 09051C   24266.61858226  .00002027  00000+0  43879-3 0  9990
2 35933  98.4472 152.6177 0006551  40.9267 319.2422 14.59334351796837
ITUPSAT1                
1 35935U 09051E   24266.42971352  .00001967  00000+0  43605-3 0  9996
2 35935  98.4572 152.1555 0008904  44.8979 315.2938 14.58245108796436
TISAT 1                 
1 36799U 10035E   24266.29128327  .00012807  00000+0  89224-3 0  9992
2 36799  98.0739 160.0548 0001440 259.8807 100.2256 15.05580535771653
AEROCUBE 4.5A           
1 38767U 12048K   24266.46467997  .00018181  00000+0  84473-3 0  9995
2 38767  64.6598   0.4871 0112170 345.5269  14.2647 15.14594298275171
AEROCUBE 4.5B           
1 38768U 12048L   24266.47074300  .00061228  00000+0  15625-2 0  9991
2 38768  64.6504 277.3007 0086383 333.4613  26.2108 15.35331454276307
STRAND-1                
1 39090U 13009E   24266.46634526  .00000828  00000+0  29774-3 0  9999
2 39090  98.3820  92.0950 0008258 328.8682  31.2014 14.36287792606202
BRITE-AUSTRIA           
1 39091U 13009F   24266.46255725  .00000552  00000+0  20470-3 0  9998
2 39091  98.3868  91.3667 0009807 335.4913  24.5806 14.35951814606222
NEE-01 PEGASO           
1 39151U 13018B   24266.55800392  .00005798  00000+0  65048-3 0  9998
2 39151  98.0462  24.7522 0015361  83.4831 276.8133 14.87102852616433
ESTCUBE 1               
1 39161U 13021C   24266.16338660  .00003405  00000+0  48634-3 0  9999
2 39161  97.8187 329.6806 0007467 275.2533  84.7825 14.77308406611447
POPACS 1                
1 39268U 13055D   24266.61913807  .00073952  10171-6  11301-2 0  9997
2 39268  80.9778  38.6056 0368563 137.2561 225.7968 15.03157890575110
POPACS 2                
1 39269U 13055E   24266.05555343  .00029145  00000+0  64574-3 0  9992
2 39269  80.9988 133.9173 0533925  26.7035 336.0615 14.61285206569728
POPACS 3                
1 39270U 13055F   24266.50433606  .00012076  00000+0  32397-3 0  9994
2 39270  81.0098 187.3878 0616822 176.1183 184.5140 14.39791191546950
ZACUBE-1 (TSHEPISOSAT)  
1 39417U 13066B   24266.42463920  .00007856  00000+0  78014-3 0  9998
2 39417  97.7437 220.3647 0048131 195.6107 164.3630 14.91121057586062
WNISAT-1                
1 39423U 13066H   24266.50315612  .00001773  00000+0  34169-3 0  9993
2 39423  97.6694  92.9683 0169971  63.8326 298.0244 14.55783529574590
TRITON-1                
1 39427U 13066M   24266.55432881  .00004405  00000+0  60400-3 0  9992
2 39427  97.8356 181.4546 0102162 127.5741 233.4801 14.75336969580561
DELFI-N3XT              
1 39428U 13066N   24266.33618967  .00009470  00000+0  11420-2 0  9994
2 39428  97.8320 182.2280 0098731 132.1074 228.8585 14.80554988580458
GOMX-1                  
1 39430U 13066Q   24266.61110030  .00003791  00000+0  62295-3 0  9993
2 39430  97.7155 135.0777 0136652 303.3504  55.4681 14.65142726577125
CUBEBUG-2 (LO-74)       
1 39440U 13066AA  24266.40381360  .00008563  00000+0  96949-3 0  9992
2 39440  97.8185 208.0888 0066122 317.8012  41.8123 14.85069365582756
NEE-02 KRYSAOR          
1 39441U 13066AB  24266.28497860  .00005729  00000+0  70903-3 0  9995
2 39441  97.8270 203.4407 0072296 341.7269  18.1348 14.81266555582300
FUNCUBE-1 (AO-73)       
1 39444U 13066AE  24266.38234685  .00009652  00000+0  87922-3 0  9991
2 39444  97.7303 223.7306 0046122 173.7792 186.4010 14.94535943584610
UWE-3                   
1 39446U 13066AG  24266.43035583  .00006379  00000+0  68285-3 0  9999
2 39446  97.7896 214.2249 0056000 259.3409 100.1498 14.87892686583155
BRITE-CA1 (TORONTO)     
1 40020U 14033L   24266.44778893  .00003083  00000+0  49495-3 0  9994
2 40020  97.8917  40.2541 0083036 141.0274 219.6957 14.70044066549159
DUCHIFAT-1              
1 40021U 14033M   24266.49649561  .00018803  00000+0  11058-2 0  9998
2 40021  98.0988 255.6449 0015139 123.3011 236.9670 15.11623742558807
NANOSATC-BR1            
1 40024U 14033Q   24266.49242765  .00015578  00000+0  10508-2 0  9991
2 40024  98.0734 242.8965 0005587 173.0693 187.0611 15.06721717557887
QB50P1                  
1 40025U 14033R   24266.49071037  .00010541  00000+0  80140-3 0  9999
2 40025  98.0552 230.6596 0011069 194.7651 165.3251 15.02291870557479
QB50P2                  
1 40032U 14033Y   24266.41474793  .00010731  00000+0  84834-3 0  9990
2 40032  98.0131 221.6003 0009701 149.7814 210.3970 15.00807208557244
PERSEUS-M2              
1 40037U 14033AD  24266.54783547  .00003720  00000+0  37846-3 0  9990
2 40037  97.9282 197.7365 0011412 228.8128 131.2107 14.91338511556334
PERSEUS-M1              
1 40039U 14033AF  24266.58632224  .00003365  00000+0  34437-3 0  9999
2 40039  97.9064 193.5468 0011193 228.2414 131.7848 14.91165650556193
POLYITAN-1              
1 40042U 14033AJ  24266.48590223  .00014935  00000+0  10239-2 0  9992
2 40042  98.0795 235.0310 0013544 152.7354 207.4585 15.06067247557464
TIGRISAT                
1 40043U 14033AK  24266.40106753  .00003934  00000+0  51425-3 0  9996
2 40043  97.7070  65.0521 0053962 347.8010  12.1892 14.79982059551839
AEROCUBE 6A             
1 40045U 14033AM  24266.53115630  .00007911  00000+0  90033-3 0  9993
2 40045  97.6772  76.3333 0048075 322.1559  37.6279 14.85626474552473
AEROCUBE 6B             
1 40046U 14033AN  24266.44107353  .00008551  00000+0  95206-3 0  9995
2 40046  97.6742  75.0413 0046575 317.3531  42.4073 14.86546812552288
